42809,IRIDIUM 126,2017,100.4,860.0,+,86.4,Active,1,LEO,USA,USA,Commercial/Government,Communications,Falcon,1 42809U 17039G   25185.35258079  .00000102  00000+0  29201-4 0  9993,2 42809  86.3995 139.0561 0002490  82.6633 277.4845 14.34218300420091,14.342183,0.000249,LEO
42810,IRIDIUM 124,2017,99.77,860.0,+,86.45,Active,1,LEO,USA,USA,Commercial/Government,Communications,Falcon,1 42810U 17039H   25185.63555889  .00000284  00000+0  78390-4 0  9999,2 42810  86.4474  75.6731 0002015  81.1412 279.0017 14.43277819424983,14.43277819,0.0002015,LEO
42811,IRIDIUM 128,2017,100.4,860.0,+,86.4,Active,1,LEO,USA,USA,Commercial/Government,Communications,Falcon,1 42811U 17039J   25185.48285511  .00000092  00000+0  25693-4 0  9990,2 42811  86.3996 170.4739 0001980  82.3474 277.7946 14.34217916420147,14.34217916,0.000198,LEO
42812,IRIDIUM 121,2017,100.4,860.0,+,86.4,Active,1,LEO,USA,USA,Commercial/Government,Communications,Falcon,1 42812U 17039K   25185.37160812  .00000030  00000+0  35843-5 0  9996,2 42812  86.3994 139.0735 0002168  86.1032 274.0411 14.34217813419976,14.34217813,0.0002168,LEO
42955,IRIDIUM 133,2017,100.4,860.0,+,86.4,Active,1,LEO,USA,USA,Commercial/Government,Communications,Falcon,1 42955U 17061A   25185.86341113  .00000112  00000+0  32862-4 0  9996,2 42955  86.3999 170.4240 0002297  85.4775 274.6683 14.34218267404995,14.34218267,0.0002297,LEO
42956,IRIDIUM 100,2017,100.4,860.0,+,86.4,Active,1,LEO,USA,USA,Commercial/Government,Communications,Falcon,1 42956U 17061B   25185.50822442  .00000163  00000+0  51206-4 0  9996,2 42956  86.3996 170.4991 0002338  82.5376 277.6086 14.34218979404942,14.34218979,0.0002338,LEO
42957,IRIDIUM 122,2017,100.4,860.0,+,86.4,Active,1,LEO,USA,USA,Commercial/Government,Communications,Falcon,1 42957U 17061C   25185.47651333  .00000002  00000+0 -63485-5 0  9998,2 42957  86.4001 170.5117 0002226  84.8176 275.3274 14.34217410404944,14.3421741,0.0002226,LEO
42958,IRIDIUM 129,2017,100.4,860.0,+,86.4,Active,1,LEO,USA,USA,Commercial/Government,Communications,Falcon,1 42958U 17061D   25185.50188455  .00000219  00000+0  71300-4 0  9996,2 42958  86.3998 170.5643 0002626  93.9578 266.1918 14.34217812404965,14.34217812,0.0002626,LEO
